SENTINEL-5P             
1 42969U 17064A   26185.82336367  .00000098  00000+0  67553-4 0  9994
2 42969  98.7928 127.8294 0001088  92.0337 268.0964 14.19522247452068
